{
  "norad_id": 67243,
  "name": "HULIANWANG DIGUI-135",
  "history": [
    {
      "epoch": "2026-05-04T20:35:53.829024Z",
      "apogee_km": 1149.9579419722186,
      "perigee_km": 1148.6903175179687,
      "latitude_deg": 2.1791846971304315e-05,
      "longitude_deg": 99.58206338060405,
      "height_km": 1150.454607716604,
      "semi_major_axis_km": 7527.461129745093,
      "eccentricity": 8.42e-05,
      "inclination_deg": 50.0027,
      "raan_deg": 271.2979,
      "arg_perigee_deg": 170.1428,
      "mean_anomaly_deg": 189.9461,
      "mean_motion_rev_day": 13.29321349
    },
    {
      "epoch": "2026-05-05T18:15:00.154080Z",
      "apogee_km": 1149.9573501674113,
      "perigee_km": 1148.6903279589797,
      "latitude_deg": -1.2786066130343494e-06,
      "longitude_deg": 130.6807802223651,
      "height_km": 1150.4586607795402,
      "semi_major_axis_km": 7527.460839063195,
      "eccentricity": 8.416e-05,
      "inclination_deg": 50.0028,
      "raan_deg": 268.0622,
      "arg_perigee_deg": 172.9627,
      "mean_anomaly_deg": 187.1257,
      "mean_motion_rev_day": 13.29321426
    },
    {
      "epoch": "2026-05-07T15:21:28.299168Z",
      "apogee_km": 1149.9771750217133,
      "perigee_km": 1148.6689024669804,
      "latitude_deg": 6.097606713152847e-05,
      "longitude_deg": 165.47004177637302,
      "height_km": 1150.483345031398,
      "semi_major_axis_km": 7527.460038744347,
      "eccentricity": 8.69e-05,
      "inclination_deg": 50.0028,
      "raan_deg": 261.3212,
      "arg_perigee_deg": 180.5738,
      "mean_anomaly_deg": 179.5134,
      "mean_motion_rev_day": 13.29321638
    },
    {
      "epoch": "2026-05-08T18:25:21.174816Z",
      "apogee_km": 1149.9919090307685,
      "perigee_km": 1148.6535266929332,
      "latitude_deg": 1.480237494043197e-05,
      "longitude_deg": 114.3436773975182,
      "height_km": 1150.4953461848665,
      "semi_major_axis_km": 7527.459717861851,
      "eccentricity": 8.89e-05,
      "inclination_deg": 50.0028,
      "raan_deg": 257.2767,
      "arg_perigee_deg": 185.2941,
      "mean_anomaly_deg": 174.7922,
      "mean_motion_rev_day": 13.29321723
    },
    {
      "epoch": "2026-05-09T14:16:11.946144Z",
      "apogee_km": 1149.9987177233588,
      "perigee_km": 1148.646785951928,
      "latitude_deg": 3.3162733606771114e-05,
      "longitude_deg": 172.8509384457099,
      "height_km": 1150.497217685472,
      "semi_major_axis_km": 7527.459751837643,
      "eccentricity": 8.98e-05,
      "inclination_deg": 50.0028,
      "raan_deg": 254.3106,
      "arg_perigee_deg": 188.7409,
      "mean_anomaly_deg": 171.3448,
      "mean_motion_rev_day": 13.29321714
    }
  ]
}